{
  "norad_id": 59384,
  "name": "STARLINK-31715",
  "history": [
    {
      "epoch": "2026-03-28T12:08:46.520736Z",
      "apogee_km": 476.4850477072414,
      "perigee_km": 473.94108416276686,
      "latitude_deg": 1.60091241608758e-05,
      "longitude_deg": 160.04861075550505,
      "height_km": 476.44972197812314,
      "semi_major_axis_km": 6853.350065935004,
      "eccentricity": 0.0001856,
      "inclination_deg": 53.1608,
      "raan_deg": 168.168,
      "arg_perigee_deg": 105.4678,
      "mean_anomaly_deg": 254.6528,
      "mean_motion_rev_day": 15.30200671
    },
    {
      "epoch": "2026-03-29T08:31:28.356384Z",
      "apogee_km": 476.27299156159734,
      "perigee_km": 474.27631861000464,
      "latitude_deg": 6.802465256035003e-06,
      "longitude_deg": -150.40431785260643,
      "height_km": 476.2679093342006,
      "semi_major_axis_km": 6853.411655085801,
      "eccentricity": 0.00014567,
      "inclination_deg": 53.1612,
      "raan_deg": 164.2263,
      "arg_perigee_deg": 95.4783,
      "mean_anomaly_deg": 264.6384,
      "mean_motion_rev_day": 15.30180044
    }
  ]
}